{"type": "FeatureCollection", "features": [ {"type": "Feature", "properties": {"norad_id": 43622, "name": "BEIDOU-3 M13 (C32)", "group": "beidou", "lat": 47.59497596773237, "lon": 115.40121812002636, "alt_km": 21531.025186103245, "timestamp": "2025-12-10T14:53:37.358351+00:00", "meta": {"OBJECT_NAME": "BEIDOU-3 M13 (C32)", "OBJECT_ID": "2018-072A", "EPOCH": "2025-12-09T10:53:18.929184", "MEAN_MOTION": 1.86230678, "ECCENTRICITY": 0.0005617, "INCLINATION": 56.4562, "RA_OF_ASC_NODE": 68.9299, "ARG_OF_PERICENTER": 299.0719, "MEAN_ANOMALY": 60.8948, "EPHEMERIS_TYPE": 0, "CLASSIFICATION_TYPE": "U", "NORAD_CAT_ID": 43622, "ELEMENT_SET_NO": 999, "REV_AT_EPOCH": 4912, "BSTAR": 0, "MEAN_MOTION_DOT": -4.9e-07, "MEAN_MOTION_DDOT": 0}, "tle": {"line1": "1 43622U 18072A   25343.45369131 -.00000049  00000+0  00000+0 0  9996", "line2": "2 43622  56.4562  68.9299 0005617 299.0719  60.8948  1.86230678 49128"}}, "geometry": {"type": "Point", "coordinates": [115.40121812002636, 47.59497596773237]}}, {"type": "Feature", "properties": {"norad_id": 43623, "name": "BEIDOU-3 M14 (C33)", "group": "beidou", "lat": 22.590155592556226, "lon": -127.10550910551399, "alt_km": 21534.381249338036, "timestamp": "2025-12-10T14:53:37.358362+00:00", "meta": {"OBJECT_NAME": "BEIDOU-3 M14 (C33)", "OBJECT_ID": "2018-072B", "EPOCH": "2025-12-09T20:32:48.260832", "MEAN_MOTION": 1.86230647, "ECCENTRICITY": 0.00032199, "INCLINATION": 56.4584, "RA_OF_ASC_NODE": 68.9099, "ARG_OF_PERICENTER": 335.7278, "MEAN_ANOMALY": 24.28, "EPHEMERIS_TYPE": 0, "CLASSIFICATION_TYPE": "U", "NORAD_CAT_ID": 43623, "ELEMENT_SET_NO": 999, "REV_AT_EPOCH": 4912, "BSTAR": 0, "MEAN_MOTION_DOT": -5.1e-07, "MEAN_MOTION_DDOT": 0}, "tle": {"line1": "1 43623U 18072B   25343.85611413 -.00000051  00000+0  00000+0 0  9997", "line2": "2 43623  56.4584  68.9099 0003219 335.7278  24.2800  1.86230647 49122"}}, "geometry": {"type": "Point", "coordinates": [-127.10550910551399, 22.590155592556226]}}, {"type": "Feature", "properties": {"norad_id": 43647, "name": "BEIDOU-3 M16 (C35)", "group": "beidou", "lat": 36.26099248879771, "lon": -21.569328018058446, "alt_km": 21505.943632336563, "timestamp": "2025-12-10T14:53:37.358372+00:00", "meta": {"OBJECT_NAME": "BEIDOU-3 M16 (C35)", "OBJECT_ID": "2018-078A", "EPOCH": "2025-12-08T22:33:41.935680", "MEAN_MOTION": 1.86232209, "ECCENTRICITY": 0.0007116, "INCLINATION": 54.2656, "RA_OF_ASC_NODE": 306.6541, "ARG_OF_PERICENTER": 19.0293, "MEAN_ANOMALY": 340.9862, "EPHEMERIS_TYPE": 0, "CLASSIFICATION_TYPE": "U", "NORAD_CAT_ID": 43647, "ELEMENT_SET_NO": 999, "REV_AT_EPOCH": 4861, "BSTAR": 0, "MEAN_MOTION_DOT": -7.5e-07, "MEAN_MOTION_DDOT": 0}, "tle": {"line1": "1 43647U 18078A   25342.94006870 -.00000075  00000+0  00000+0 0  9999", "line2": "2 43647  54.2656 306.6541 0007116  19.0293 340.9862  1.86232209 48612"}}, "geometry": {"type": "Point", "coordinates": [-21.569328018058446, 36.26099248879771]}}, {"type": "Feature", "properties": {"norad_id": 43648, "name": "BEIDOU-3 M15 (C34)", "group": "beidou", "lat": -31.416844204096428, "lon": -79.49587916311854, "alt_km": 21526.541899061634, "timestamp": "2025-12-10T14:53:37.358382+00:00", "meta": {"OBJECT_NAME": "BEIDOU-3 M15 (C34)", "OBJECT_ID": "2018-078B", "EPOCH": "2025-12-09T14:32:59.144640", "MEAN_MOTION": 1.86231871, "ECCENTRICITY": 0.0003622, "INCLINATION": 54.2606, "RA_OF_ASC_NODE": 306.6314, "ARG_OF_PERICENTER": 18.0065, "MEAN_ANOMALY": 341.9965, "EPHEMERIS_TYPE": 0, "CLASSIFICATION_TYPE": "U", "NORAD_CAT_ID": 43648, "ELEMENT_SET_NO": 999, "REV_AT_EPOCH": 4864, "BSTAR": 0, "MEAN_MOTION_DOT": -7.7e-07, "MEAN_MOTION_DDOT": 0}, "tle": {"line1": "1 43648U 18078B   25343.60624010 -.00000077  00000+0  00000+0 0  9998", "line2": "2 43648  54.2606 306.6314 0003622  18.0065 341.9965  1.86231871 48642"}}, "geometry": {"type": "Point", "coordinates": [-79.49587916311854, -31.416844204096428]}}, {"type": "Feature", "properties": {"norad_id": 43683, "name": "BEIDOU-3 G1 (C59)", "group": "beidou", "lat": -0.8697736983626607, "lon": 83.06621679512352, "alt_km": 35785.754827431905, "timestamp": "2025-12-10T14:53:37.358393+00:00", "meta": {"OBJECT_NAME": "BEIDOU-3 G1 (C59)", "OBJECT_ID": "2018-085A", "EPOCH": "2025-12-10T06:12:22.341024", "MEAN_MOTION": 1.00271312, "ECCENTRICITY": 0.00018572, "INCLINATION": 2.6013, "RA_OF_ASC_NODE": 103.0522, "ARG_OF_PERICENTER": 65.4692, "MEAN_ANOMALY": 143.8794, "EPHEMERIS_TYPE": 0, "CLASSIFICATION_TYPE": "U", "NORAD_CAT_ID": 43683, "ELEMENT_SET_NO": 999, "REV_AT_EPOCH": 2616, "BSTAR": 0, "MEAN_MOTION_DOT": -2.74e-06, "MEAN_MOTION_DDOT": 0}, "tle": {"line1": "1 43683U 18085A   25344.25859191 -.00000274  00000+0  00000+0 0  9996", "line2": "2 43683   2.6013 103.0522 0001857  65.4692 143.8794  1.00271312 26162"}}, "geometry": {"type": "Point", "coordinates": [83.06621679512352, -0.8697736983626607]}}, {"type": "Feature", "properties": {"norad_id": 43706, "name": "BEIDOU-3 M17 (C36)", "group": "beidou", "lat": -26.73386390680011, "lon": 30.042178918958452, "alt_km": 21532.760376351904, "timestamp": "2025-12-10T14:53:37.358403+00:00", "meta": {"OBJECT_NAME": "BEIDOU-3 M17 (C36)", "OBJECT_ID": "2018-093A", "EPOCH": "2025-12-07T14:48:21.849120", "MEAN_MOTION": 1.86228285, "ECCENTRICITY": 0.0006281, "INCLINATION": 54.1726, "RA_OF_ASC_NODE": 188.7957, "ARG_OF_PERICENTER": 306.8876, "MEAN_ANOMALY": 53.1241, "EPHEMERIS_TYPE": 0, "CLASSIFICATION_TYPE": "U", "NORAD_CAT_ID": 43706, "ELEMENT_SET_NO": 999, "REV_AT_EPOCH": 4797, "BSTAR": 0, "MEAN_MOTION_DOT": 5.7e-07, "MEAN_MOTION_DDOT": 0}, "tle": {"line1": "1 43706U 18093A   25341.61691955  .00000057  00000+0  00000+0 0  9998", "line2": "2 43706  54.1726 188.7957 0006281 306.8876  53.1241  1.86228285 47972"}}, "geometry": {"type": "Point", "coordinates": [30.042178918958452, -26.73386390680011]}}, {"type": "Feature", "properties": {"norad_id": 43707, "name": "BEIDOU-3 M18 (C37)", "group": "beidou", "lat": -40.59678359917921, "lon": 150.43283418866122, "alt_km": 21520.894794908472, "timestamp": "2025-12-10T14:53:37.358414+00:00", "meta": {"OBJECT_NAME": "BEIDOU-3 M18 (C37)", "OBJECT_ID": "2018-093B", "EPOCH": "2025-12-09T02:08:32.306784", "MEAN_MOTION": 1.86226655, "ECCENTRICITY": 0.00062934, "INCLINATION": 54.1729, "RA_OF_ASC_NODE": 188.7377, "ARG_OF_PERICENTER": 351.6926, "MEAN_ANOMALY": 8.358, "EPHEMERIS_TYPE": 0, "CLASSIFICATION_TYPE": "U", "NORAD_CAT_ID": 43707, "ELEMENT_SET_NO": 999, "REV_AT_EPOCH": 4799, "BSTAR": 0, "MEAN_MOTION_DOT": 4.9e-07, "MEAN_MOTION_DDOT": 0}, "tle": {"line1": "1 43707U 18093B   25343.08926281  .00000049  00000+0  00000+0 0  9996", "line2": "2 43707  54.1729 188.7377 0006293 351.6926   8.3580  1.86226655 47998"}}, "geometry": {"type": "Point", "coordinates": [150.43283418866122, -40.59678359917921]}}, {"type": "Feature", "properties": {"norad_id": 44204, "name": "BEIDOU-3 IGSO-1 (C38)", "group": "beidou", "lat": 14.246972266989376, "lon": 48.603416088093766, "alt_km": 35895.84085320086, "timestamp": "2025-12-10T14:53:37.358425+00:00", "meta": {"OBJECT_NAME": "BEIDOU-3 IGSO-1 (C38)", "OBJECT_ID": "2019-023A", "EPOCH": "2025-11-19T14:15:02.708640", "MEAN_MOTION": 1.00252177, "ECCENTRICITY": 0.0026966, "INCLINATION": 58.4003, "RA_OF_ASC_NODE": 39.8168, "ARG_OF_PERICENTER": 221.2202, "MEAN_ANOMALY": 126.9723, "EPHEMERIS_TYPE": 0, "CLASSIFICATION_TYPE": "U", "NORAD_CAT_ID": 44204, "ELEMENT_SET_NO": 999, "REV_AT_EPOCH": 510, "BSTAR": 0, "MEAN_MOTION_DOT": -2.26e-06, "MEAN_MOTION_DDOT": 0}, "tle": {"line1": "1 44204U 19023A   25323.59378135 -.00000226  00000+0  00000+0 0  9994", "line2": "2 44204  58.4003  39.8168 0026966 221.2202 126.9723  1.00252177  5102"}}, "geometry": {"type": "Point", "coordinates": [48.603416088093766, 14.246972266989376]}}, {"type": "Feature", "properties": {"norad_id": 44231, "name": "BEIDOU-2 G8 (C01)", "group": "beidou", "lat": 0.38894056702992, "lon": 87.59743747740328, "alt_km": 35803.96556611709, "timestamp": "2025-12-10T14:53:37.358438+00:00", "meta": {"OBJECT_NAME": "BEIDOU-2 G8 (C01)", "OBJECT_ID": "2019-027A", "EPOCH": "2025-12-10T06:14:21.745824", "MEAN_MOTION": 1.00268266, "ECCENTRICITY": 0.00085813, "INCLINATION": 1.6556, "RA_OF_ASC_NODE": 74.6839, "ARG_OF_PERICENTER": 255.0542, "MEAN_ANOMALY": 347.6143, "EPHEMERIS_TYPE": 0, "CLASSIFICATION_TYPE": "U", "NORAD_CAT_ID": 44231, "ELEMENT_SET_NO": 999, "REV_AT_EPOCH": 2418, "BSTAR": 0, "MEAN_MOTION_DOT": -2.44e-06, "MEAN_MOTION_DDOT": 0}, "tle": {"line1": "1 44231U 19027A   25344.25997391 -.00000244  00000+0  00000+0 0  9995", "line2": "2 44231   1.6556  74.6839 0008581 255.0542 347.6143  1.00268266 24185"}}, "geometry": {"type": "Point", "coordinates": [87.59743747740328, 0.38894056702992]}}, {"type": "Feature", "properties": {"norad_id": 44337, "name": "BEIDOU-3 IGSO-2 (C39)", "group": "beidou", "lat": -54.45917715726865, "lon": 57.35859100281818, "alt_km": 35713.66210958624, "timestamp": "2025-12-10T14:53:37.358449+00:00", "meta": {"OBJECT_NAME": "BEIDOU-3 IGSO-2 (C39)", "OBJECT_ID": "2019-035A", "EPOCH": "2025-12-08T21:18:38.600064", "MEAN_MOTION": 1.00272014, "ECCENTRICITY": 0.0037301, "INCLINATION": 55.2241, "RA_OF_ASC_NODE": 160.5341, "ARG_OF_PERICENTER": 202.3504, "MEAN_ANOMALY": 154.1975, "EPHEMERIS_TYPE": 0, "CLASSIFICATION_TYPE": "U", "NORAD_CAT_ID": 44337, "ELEMENT_SET_NO": 999, "REV_AT_EPOCH": 2375, "BSTAR": 0, "MEAN_MOTION_DOT": -7.9e-07, "MEAN_MOTION_DDOT": 0}, "tle": {"line1": "1 44337U 19035A   25342.88794676 -.00000079  00000+0  00000+0 0  9995", "line2": "2 44337  55.2241 160.5341 0037301 202.3504 154.1975  1.00272014 23758"}}, "geometry": {"type": "Point", "coordinates": [57.35859100281818, -54.45917715726865]}}]}